SHIJIAN-17 (SJ-17)      
1 41838U 16065A   26177.58637191  .00000123  00000+0  00000+0 0  9999
2 41838   5.7763  72.4953 0002233  28.5327 246.5081  0.99858719 35292
GOES 16                 
1 41866U 16071A   26177.57357477 -.00000080  00000+0  00000+0 0  9995
2 41866   0.3649  85.5362 0000563   6.0774 284.8738  1.00272069 35191
TIANLIAN 1-04           
1 41869U 16072A   26177.70061549  .00000041  00000+0  00000+0 0  9992
2 41869   0.8927  82.8641 0042875  90.3192 170.6407  1.00273158 35397
WGS F8 (USA 272)        
1 41879U 16075A   26177.70947479  .00000000  00000+0  00000+0 0  9996
2 41879   0.0463  53.6813 0000540  46.9656 219.4604  1.00278356 34910
FENGYUN 4A              
1 41882U 16077A   26177.54757616 -.00000348  00000+0  00000+0 0  9992
2 41882   2.3469  80.1884 0008229 152.1316   3.0696  1.00264621 35024
ECHOSTAR 19             
1 41893U 16079A   26177.64644111 -.00000127  00000+0  00000+0 0  9997
2 41893   0.0183  19.8982 0001612  68.3541 322.1270  1.00270710 34791
JCSAT-110A (JCSAT-15)   
1 41903U 16082A   26177.61850176 -.00000340  00000+0  00000+0 0  9997
2 41903   0.0185   5.7500 0000931 105.1152 136.6048  1.00272305 34856
STAR ONE D1             
1 41904U 16082B   26177.57773478 -.00000200  00000+0  00000+0 0  9997
2 41904   0.0217  52.7452 0002294  57.7609 288.1816  1.00271855 34860
TJS-2                   
1 41911U 17001A   26177.67884691  .00000004  00000+0  00000+0 0  9999
2 41911   0.8577  85.2207 0000769  44.8924  95.6059  1.00272259 34810
SBIRS GEO-4 (USA 273)   
1 41937U 17004A   26177.66976909  .00000133  00000+0  00000+0 0  9996
2 41937   2.2609  43.5395 0002373  44.4122  88.8583  1.00273665 34698
HISPASAT 36W-1          
1 41942U 17006A   26177.51587764 -.00000233  00000+0  00000+0 0  9997
2 41942   0.0087 285.7882 0000977 164.6045 333.9657  1.00269517 34336
TELKOM 3S               
1 41944U 17007A   26177.68900208 -.00000351  00000+0  00000+0 0  9991
2 41944   0.0149  54.5265 0002516  40.2302 186.0934  1.00273173 34237
INTELSAT 32E (IS-32E)   
1 41945U 17007B   26177.72838478 -.00000258  00000+0  00000+0 0  9992
2 41945   0.0157 342.8398 0000829  14.0031 137.0400  1.00271897 34325
ECHOSTAR 23             
1 42070U 17014A   26177.64384110  .00000000  00000+0  00000+0 0  9994
2 42070   0.0283  20.8116 0002085  74.4920 301.3478  1.00271326 34013
WGS F9 (USA 275)        
1 42075U 17016A   26177.73453815  .00000000  00000+0  00000+0 0  9990
2 42075   0.0257 349.3327 0000373  72.7542 105.2043  1.00271032 33990
SES-10                  
1 42432U 17017A   26177.72358226 -.00000261  00000+0  00000+0 0  9997
2 42432   0.0202  39.1239 0002988  59.6121   9.7014  1.00271206 33858
CHINASAT 16 (SJ-13)     
1 42662U 17018A   26176.97461878 -.00000342  00000+0  00000+0 0  9997
2 42662   0.0997  89.7024 0004043 125.6560 160.1297  1.00275032 33836
KOREASAT 7              
1 42691U 17023A   26177.69114266 -.00000350  00000+0  00000+0 0  9990
2 42691   0.0198  16.5250 0000649  53.4943 209.5123  1.00273149 33463
SGDC                    
1 42692U 17023B   26177.44530044 -.00000238  00000+0  00000+0 0  9995
2 42692   0.0225  57.1815 0002839  43.1092 259.7374  1.00271731 33490
GSAT-9                  
1 42695U 17024A   26177.75616105 -.00000275  00000+0  00000+0 0  9997
2 42695   0.0384  88.0084 0002057  19.5110 176.8498  1.00273831 33398
INMARSAT 5-F4           
1 42698U 17025A   26177.74812470  .00000000  00000+0  00000+0 0  9998
2 42698   0.0278  22.9153 0000722  19.9960 197.7868  1.00277150 33370
SES-15                  
1 42709U 17026A   26177.72018891  .00000072  00000+0  00000+0 0  9994
2 42709   0.0197 336.5647 0000730 101.7226 326.6485  1.00267078  7523
QZS-2 (MICHIBIKI-2)     
1 42738U 17028A   26177.49072513 -.00000138  00000+0  00000+0 0  9997
2 42738  39.4133 243.0175 0759188 269.3662  80.9134  1.00281441  7714
VIASAT-2                
1 42740U 17029A   26177.58042147 -.00000254  00000+0  00000+0 0  9990
2 42740   0.0170 299.6959 0000478 125.7864 348.2901  1.00271969 33297
EUTELSAT 172B           
1 42741U 17029B   26177.69957546  .00000006  00000+0  00000+0 0  9995
2 42741   0.0404 140.6931 0000360 302.9990 254.9779  1.00273038 33837
GSAT-19                 
1 42747U 17031A   26177.60386285  .00000137  00000+0  00000+0 0  9996
2 42747   0.0157 319.2167 0007170 117.1799 103.5674  1.00272161 33246
ECHOSTAR 21             
1 42749U 17032A   26177.66768909  .00000077  00000+0  00000+0 0  9995
2 42749   1.7702 356.3373 0002607  88.6074  80.4721  1.00273280 33194
BULGARIASAT-1           
1 42801U 17038A   26177.66604241  .00000023  00000+0  00000+0 0  9999
2 42801   0.0323  74.7153 0003604  32.4833  49.2702  1.00274055 32944
HELLAS-SAT 3            
1 42814U 17040A   26177.60204285  .00000164  00000+0  00000+0 0  9990
2 42814   0.0405  35.0836 0004340  24.6724 110.7165  1.00269359 32901
GSAT-17                 
1 42815U 17040B   26177.72613979 -.00000247  00000+0  00000+0 0  9991
2 42815   0.0302  84.0187 0001381 210.0377 335.7016  1.00272499 32888
INTELSAT 35E (IS-35E)   
1 42818U 17041A   26177.73011813  .00000000  00000+0  00000+0 0  9991
2 42818   0.0269  21.1536 0002386  76.4382  45.6133  1.00269232 32911
COSMOS 2520             
1 42907U 17046A   26174.90294715  .00000143  00000+0  00000+0 0  9993
2 42907   0.0481  95.9270 0000820  77.4277 108.7874  1.00274167 32461
