OBJECT_NAME,OBJECT_ID,EPOCH,MEAN_MOTION,ECCENTRICITY,INCLINATION,RA_OF_ASC_NODE,ARG_OF_PERICENTER,MEAN_ANOMALY,EPHEMERIS_TYPE,CLASSIFICATION_TYPE,NORAD_CAT_ID,ELEMENT_SET_NO,REV_AT_EPOCH,BSTAR,MEAN_MOTION_DOT,MEAN_MOTION_DDOT
SHIJIAN-17 (SJ-17),2016-065A,2026-06-26T14:04:22.533024,0.99858719,.0002233,5.7763,72.4953,28.5327,246.5081,0,U,41838,999,3529,0,.123E-5,0
GOES 16,2016-071A,2026-06-26T13:45:56.860128,1.00272069,.0000563,0.3649,85.5362,6.0774,284.8738,0,U,41866,999,3519,0,-.8E-6,0
TIANLIAN 1-04,2016-072A,2026-06-26T16:48:53.178336,1.00273158,.0042875,0.8927,82.8641,90.3192,170.6407,0,U,41869,999,3539,0,.41E-6,0
WGS F8 (USA 272),2016-075A,2026-06-26T17:01:38.621856,1.00278356,.000054,0.0463,53.6813,46.9656,219.4604,0,U,41879,999,3491,0,0,0
FENGYUN 4A,2016-077A,2026-06-26T13:08:30.580224,1.00264621,.0008229,2.3469,80.1884,152.1316,3.0696,0,U,41882,999,3502,0,-.348E-5,0
ECHOSTAR 19,2016-079A,2026-06-26T15:30:52.511904,1.00270710,.0001612,0.0183,19.8982,68.3541,322.1270,0,U,41893,999,3479,0,-.127E-5,0
JCSAT-110A (JCSAT-15),2016-082A,2026-06-26T14:50:38.552064,1.00272305,.0000931,0.0185,5.7500,105.1152,136.6048,0,U,41903,999,3485,0,-.34E-5,0
STAR ONE D1,2016-082B,2026-06-26T13:51:56.284992,1.00271855,.0002294,0.0217,52.7452,57.7609,288.1816,0,U,41904,999,3486,0,-.2E-5,0
TJS-2,2017-001A,2026-06-26T16:17:32.373024,1.00272259,.0000769,0.8577,85.2207,44.8924,95.6059,0,U,41911,999,3481,0,.4E-7,0
SBIRS GEO-4 (USA 273),2017-004A,2026-06-26T16:04:28.049376,1.00273665,.0002373,2.2609,43.5395,44.4122,88.8583,0,U,41937,999,3469,0,.133E-5,0
HISPASAT 36W-1,2017-006A,2026-06-26T12:22:51.828096,1.00269517,.0000977,0.0087,285.7882,164.6045,333.9657,0,U,41942,999,3433,0,-.233E-5,0
TELKOM 3S,2017-007A,2026-06-26T16:32:09.779712,1.00273173,.0002516,0.0149,54.5265,40.2302,186.0934,0,U,41944,999,3423,0,-.351E-5,0
INTELSAT 32E (IS-32E),2017-007B,2026-06-26T17:28:52.444992,1.00271897,.0000829,0.0157,342.8398,14.0031,137.0400,0,U,41945,999,3432,0,-.258E-5,0
ECHOSTAR 23,2017-014A,2026-06-26T15:27:07.871040,1.00271326,.0002085,0.0283,20.8116,74.4920,301.3478,0,U,42070,999,3401,0,0,0
WGS F9 (USA 275),2017-016A,2026-06-26T17:37:44.096160,1.00271032,.0000373,0.0257,349.3327,72.7542,105.2043,0,U,42075,999,3399,0,0,0
SES-10,2017-017A,2026-06-26T17:21:57.507264,1.00271206,.0002988,0.0202,39.1239,59.6121,9.7014,0,U,42432,999,3385,0,-.261E-5,0
CHINASAT 16 (SJ-13),2017-018A,2026-06-25T23:23:27.062592,1.00275032,.00040437,0.0997,89.7024,125.6560,160.1297,0,U,42662,999,3383,0,-.342E-5,0
KOREASAT 7,2017-023A,2026-06-26T16:35:14.725824,1.00273149,.0000649,0.0198,16.5250,53.4943,209.5123,0,U,42691,999,3346,0,-.35E-5,0
SGDC,2017-023B,2026-06-26T10:41:13.958016,1.00271731,.0002839,0.0225,57.1815,43.1092,259.7374,0,U,42692,999,3349,0,-.238E-5,0
GSAT-9,2017-024A,2026-06-26T18:08:52.314720,1.00273831,.0002057,0.0384,88.0084,19.5110,176.8498,0,U,42695,999,3339,0,-.275E-5,0
INMARSAT 5-F4,2017-025A,2026-06-26T17:57:17.974080,1.00277150,.0000722,0.0278,22.9153,19.9960,197.7868,0,U,42698,999,3337,0,0,0
SES-15,2017-026A,2026-06-26T17:17:04.321824,1.00267078,.000073,0.0197,336.5647,101.7226,326.6485,0,U,42709,999,752,0,.72E-6,0
QZS-2 (MICHIBIKI-2),2017-028A,2026-06-26T11:46:38.651232,1.00281441,.0759188,39.4133,243.0175,269.3662,80.9134,0,U,42738,999,771,0,-.138E-5,0
VIASAT-2,2017-029A,2026-06-26T13:55:48.415008,1.00271969,.0000478,0.0170,299.6959,125.7864,348.2901,0,U,42740,999,3329,0,-.254E-5,0
EUTELSAT 172B,2017-029B,2026-06-26T16:47:23.319744,1.00273038,.000036,0.0404,140.6931,302.9990,254.9779,0,U,42741,999,3383,0,.6E-7,0
GSAT-19,2017-031A,2026-06-26T14:29:33.750240,1.00272161,.000717,0.0157,319.2167,117.1799,103.5674,0,U,42747,999,3324,0,.137E-5,0
ECHOSTAR 21,2017-032A,2026-06-26T16:01:28.337376,1.00273280,.0002607,1.7702,356.3373,88.6074,80.4721,0,U,42749,999,3319,0,.77E-6,0
BULGARIASAT-1,2017-038A,2026-06-26T15:59:06.064224,1.00274055,.0003604,0.0323,74.7153,32.4833,49.2702,0,U,42801,999,3294,0,.23E-6,0
HELLAS-SAT 3,2017-040A,2026-06-26T14:26:56.502240,1.00269359,.000434,0.0405,35.0836,24.6724,110.7165,0,U,42814,999,3290,0,.164E-5,0
GSAT-17,2017-040B,2026-06-26T17:25:38.477856,1.00272499,.0001381,0.0302,84.0187,210.0377,335.7016,0,U,42815,999,3288,0,-.247E-5,0
INTELSAT 35E (IS-35E),2017-041A,2026-06-26T17:31:22.206432,1.00269232,.0002386,0.0269,21.1536,76.4382,45.6133,0,U,42818,999,3291,0,0,0
COSMOS 2520,2017-046A,2026-06-23T21:40:14.633760,1.00274167,.00008208,0.0481,95.9270,77.4277,108.7874,0,U,42907,999,3246,0,.143E-5,0
